0 CZ-2D R/B
1 41858U 16068B   26091.42478218  .00000272  00000-0  10581-3 0  9990
2 41858  98.6321  96.2474 0033906  48.8123 311.5978 14.37124038491940